{
  "type": "FeatureCollection",
  "features": [
    {
      "type": "Feature",
      "properties": {
        "norad_id": 32376,
        "name": "COSMO-SKYMED 2",
        "group": "resource",
        "lat": -5.28309104444771,
        "lon": 165.42949296206632,
        "alt_km": 626.2043775330076,
        "timestamp": "2025-12-09T07:41:32.859469+00:00",
        "meta_object_name": "COSMO-SKYMED 2",
        "meta_object_id": "2007-059A",
        "meta_epoch": "2025-12-08T23:36:54.786816",
        "meta_mean_motion": 14.82158375,
        "meta_eccentricity": 0.00015311,
        "meta_inclination": 97.8812,
        "meta_ra_of_asc_node": 164.3642,
        "meta_arg_of_pericenter": 85.8713,
        "meta_mean_anomaly": 274.2675,
        "meta_ephemeris_type": 0,
        "meta_classification_type": "U",
        "meta_norad_cat_id": 32376,
        "meta_element_set_no": 999,
        "meta_rev_at_epoch": 97382,
        "meta_bstar": 0.00011660614,
        "meta_mean_motion_dot": 8.76e-06,
        "meta_mean_motion_ddot": 0,
        "tle_line1": "1 32376U 07059A   25342.98396744  .00000876  00000+0  11661-3 0  9996",
        "tle_line2": "2 32376  97.8812 164.3642 0001531  85.8713 274.2675 14.82158375973822"
      },
      "geometry": {
        "type": "Point",
        "coordinates": [
          165.42949296206632,
          -5.28309104444771
        ]
      }
    },
    {
      "type": "Feature",
      "properties": {
        "norad_id": 32382,
        "name": "RADARSAT-2",
        "group": "resource",
        "lat": -44.392616999807785,
        "lon": 159.46062133137872,
        "alt_km": 799.0204488991594,
        "timestamp": "2025-12-09T07:41:32.859480+00:00",
        "meta_object_name": "RADARSAT-2",
        "meta_object_id": "2007-061A",
        "meta_epoch": "2025-12-08T23:55:35.857920",
        "meta_mean_motion": 14.29985445,
        "meta_eccentricity": 0.00010741,
        "meta_inclination": 98.5794,
        "meta_ra_of_asc_node": 347.6411,
        "meta_arg_of_pericenter": 87.7122,
        "meta_mean_anomaly": 272.4183,
        "meta_ephemeris_type": 0,
        "meta_classification_type": "U",
        "meta_norad_cat_id": 32382,
        "meta_element_set_no": 999,
        "meta_rev_at_epoch": 93877,
        "meta_bstar": 2.3292143e-05,
        "meta_mean_motion_dot": 1.6e-07,
        "meta_mean_motion_ddot": 0,
        "tle_line1": "1 32382U 07061A   25342.99694280  .00000016  00000+0  23292-4 0  9993",
        "tle_line2": "2 32382  98.5794 347.6411 0001074  87.7122 272.4183 14.29985445938779"
      },
      "geometry": {
        "type": "Point",
        "coordinates": [
          159.46062133137872,
          -44.392616999807785
        ]
      }
    },
    {
      "type": "Feature",
      "properties": {
        "norad_id": 32783,
        "name": "CARTOSAT-2A",
        "group": "resource",
        "lat": 5.561123022487945,
        "lon": -145.98546452839759,
        "alt_km": 642.9969188237374,
        "timestamp": "2025-12-09T07:41:32.859491+00:00",
        "meta_object_name": "CARTOSAT-2A",
        "meta_object_id": "2008-021A",
        "meta_epoch": "2025-12-08T22:47:18.292128",
        "meta_mean_motion": 14.78924138,
        "meta_eccentricity": 0.00122326,
        "meta_inclination": 97.7931,
        "meta_ra_of_asc_node": 32.8911,
        "meta_arg_of_pericenter": 16.4475,
        "meta_mean_anomaly": 343.7131,
        "meta_ephemeris_type": 0,
        "meta_classification_type": "U",
        "meta_norad_cat_id": 32783,
        "meta_element_set_no": 999,
        "meta_rev_at_epoch": 95068,
        "meta_bstar": 0.00010208581,
        "meta_mean_motion_dot": 7.03e-06,
        "meta_mean_motion_ddot": 0,
        "tle_line1": "1 32783U 08021A   25342.94951727  .00000703  00000+0  10209-3 0  9998",
        "tle_line2": "2 32783  97.7931  32.8911 0012232  16.4475 343.7131 14.78924138950689"
      },
      "geometry": {
        "type": "Point",
        "coordinates": [
          -145.98546452839759,
          5.561123022487945
        ]
      }
    },
    {
      "type": "Feature",
      "properties": {
        "norad_id": 33320,
        "name": "HUANJING 1A (HJ-1A)",
        "group": "resource",
        "lat": -15.27939239172727,
        "lon": -26.133273853355448,
        "alt_km": 616.378125047996,
        "timestamp": "2025-12-09T07:41:32.859502+00:00",
        "meta_object_name": "HUANJING 1A (HJ-1A)",
        "meta_object_id": "2008-041A",
        "meta_epoch": "2025-12-08T23:40:01.303680",
        "meta_mean_motion": 14.83376055,
        "meta_eccentricity": 0.00203717,
        "meta_inclination": 97.6538,
        "meta_ra_of_asc_node": 331.441,
        "meta_arg_of_pericenter": 46.0719,
        "meta_mean_anomaly": 314.2172,
        "meta_ephemeris_type": 0,
        "meta_classification_type": "U",
        "meta_norad_cat_id": 33320,
        "meta_element_set_no": 999,
        "meta_rev_at_epoch": 93020,
        "meta_bstar": 0.00034195314,
        "meta_mean_motion_dot": 2.763e-05,
        "meta_mean_motion_ddot": 0,
        "tle_line1": "1 33320U 08041A   25342.98612620  .00002763  00000+0  34195-3 0  9996",
        "tle_line2": "2 33320  97.6538 331.4410 0020371  46.0719 314.2172 14.83376055930203"
      },
      "geometry": {
        "type": "Point",
        "coordinates": [
          -26.133273853355448,
          -15.27939239172727
        ]
      }
    },
    {
      "type": "Feature",
      "properties": {
        "norad_id": 33321,
        "name": "HUANJING 1B (HJ-1B)",
        "group": "resource",
        "lat": -33.160510056374136,
        "lon": 150.4360479151023,
        "alt_km": 642.665389879462,
        "timestamp": "2025-12-09T07:41:32.859513+00:00",
        "meta_object_name": "HUANJING 1B (HJ-1B)",
        "meta_object_id": "2008-041B",
        "meta_epoch": "2025-12-08T22:38:19.786848",
        "meta_mean_motion": 14.82806023,
        "meta_eccentricity": 0.00382158,
        "meta_inclination": 97.6396,
        "meta_ra_of_asc_node": 335.1069,
        "meta_arg_of_pericenter": 87.7087,
        "meta_mean_anomaly": 272.8502,
        "meta_ephemeris_type": 0,
        "meta_classification_type": "U",
        "meta_norad_cat_id": 33321,
        "meta_element_set_no": 999,
        "meta_rev_at_epoch": 93021,
        "meta_bstar": 0.00025478787,
        "meta_mean_motion_dot": 2.036e-05,
        "meta_mean_motion_ddot": 0,
        "tle_line1": "1 33321U 08041B   25342.94328457  .00002036  00000+0  25479-3 0  9993",
        "tle_line2": "2 33321  97.6396 335.1069 0038215  87.7087 272.8502 14.82806023930212"
      },
      "geometry": {
        "type": "Point",
        "coordinates": [
          150.4360479151023,
          -33.160510056374136
        ]
      }
    },
    {
      "type": "Feature",
      "properties": {
        "norad_id": 33331,
        "name": "GEOEYE 1",
        "group": "resource",
        "lat": 59.386843864420875,
        "lon": 40.67135597108516,
        "alt_km": 673.1610779388275,
        "timestamp": "2025-12-09T07:41:32.859524+00:00",
        "meta_object_name": "GEOEYE 1",
        "meta_object_id": "2008-042A",
        "meta_epoch": "2025-12-08T23:13:14.302560",
        "meta_mean_motion": 14.64804037,
        "meta_eccentricity": 0.00027857,
        "meta_inclination": 98.1256,
        "meta_ra_of_asc_node": 54.2953,
        "meta_arg_of_pericenter": 293.4943,
        "meta_mean_anomaly": 66.5967,
        "meta_ephemeris_type": 0,
        "meta_classification_type": "U",
        "meta_norad_cat_id": 33331,
        "meta_element_set_no": 999,
        "meta_rev_at_epoch": 92230,
        "meta_bstar": 0.00018845694,
        "meta_mean_motion_dot": 9.58e-06,
        "meta_mean_motion_ddot": 0,
        "tle_line1": "1 33331U 08042A   25342.96752665  .00000958  00000+0  18846-3 0  9990",
        "tle_line2": "2 33331  98.1256  54.2953 0002785 293.4943  66.5967 14.64804037922302"
      },
      "geometry": {
        "type": "Point",
        "coordinates": [
          40.67135597108516,
          59.386843864420875
        ]
      }
    },
    {
      "type": "Feature",
      "properties": {
        "norad_id": 33396,
        "name": "THEOS",
        "group": "resource",
        "lat": 71.24204953931577,
        "lon": -112.0715499839474,
        "alt_km": 817.336505145634,
        "timestamp": "2025-12-09T07:41:32.859535+00:00",
        "meta_object_name": "THEOS",
        "meta_object_id": "2008-049A",
        "meta_epoch": "2025-12-08T22:44:12.977952",
        "meta_mean_motion": 14.20094087,
        "meta_eccentricity": 0.00011291,
        "meta_inclination": 98.5868,
        "meta_ra_of_asc_node": 41.1486,
        "meta_arg_of_pericenter": 95.9434,
        "meta_mean_anomaly": 264.1872,
        "meta_ephemeris_type": 0,
        "meta_classification_type": "U",
        "meta_norad_cat_id": 33396,
        "meta_element_set_no": 999,
        "meta_rev_at_epoch": 89096,
        "meta_bstar": -2.1350332e-05,
        "meta_mean_motion_dot": -8.8e-07,
        "meta_mean_motion_ddot": 0,
        "tle_line1": "1 33396U 08049A   25342.94737243 -.00000088  00000+0 -21350-4 0  9992",
        "tle_line2": "2 33396  98.5868  41.1486 0001129  95.9434 264.1872 14.20094087890968"
      },
      "geometry": {
        "type": "Point",
        "coordinates": [
          -112.0715499839474,
          71.24204953931577
        ]
      }
    }
  ]
}